{"fetched_at":"2026-07-12T05:52:32.048Z","source":"https://celestrak.org/NORAD/elements/gp.php?GROUP=kuiper&FORMAT=JSON","constellation":"kuiper","records":[{"OBJECT_NAME":"KUIPER-00086","OBJECT_ID":"2025-151S","EPOCH":"2026-07-11T04:09:55.980576","CLASSIFICATION_TYPE":"U","MEAN_MOTION":14.79938371,"ECCENTRICITY":0.00008366,"INCLINATION":51.9005,"RA_OF_ASC_NODE":112.0638,"ARG_OF_PERICENTER":98.4289,"MEAN_ANOMALY":261.6768,"EPHEMERIS_TYPE":0,"NORAD_CAT_ID":64832,"ELEMENT_SET_NO":999,"REV_AT_EPOCH":5362,"BSTAR":0.00029134228,"MEAN_MOTION_DOT":0.00002001,"MEAN_MOTION_DDOT":0},{"OBJECT_NAME":"KUIPER-00087","OBJECT_ID":"2025-151T","EPOCH":"2026-07-11T20:49:31.294848","CLASSIFICATION_TYPE":"U","MEAN_MOTION":14.79936635,"ECCENTRICITY":0.0000813,"INCLINATION":51.8993,"RA_OF_ASC_NODE":91.4565,"ARG_OF_PERICENTER":115.9769,"MEAN_ANOMALY":244.1277,"EPHEMERIS_TYPE":0,"NORAD_CAT_ID":64833,"ELEMENT_SET_NO":999,"REV_AT_EPOCH":5396,"BSTAR":0.00018388,"MEAN_MOTION_DOT":0.00001181,"MEAN_MOTION_DDOT":0},{"OBJECT_NAME":"KUIPER-00089","OBJECT_ID":"2025-151U","EPOCH":"2026-07-11T02:52:05.991456","CLASSIFICATION_TYPE":"U","MEAN_MOTION":14.79938738,"ECCENTRICITY":0.00007308,"INCLINATION":51.8999,"RA_OF_ASC_NODE":99.788,"ARG_OF_PERICENTER":94.9781,"MEAN_ANOMALY":265.1265,"EPHEMERIS_TYPE":0,"NORAD_CAT_ID":64834,"ELEMENT_SET_NO":999,"REV_AT_EPOCH":5379,"BSTAR":0.00028867012,"MEAN_MOTION_DOT":0.0000198,"MEAN_MOTION_DDOT":0},{"OBJECT_NAME":"KUIPER-00090","OBJECT_ID":"2025-151V","EPOCH":"2026-07-11T20:53:25.465632","CLASSIFICATION_TYPE":"U","MEAN_MOTION":14.79931211,"ECCENTRICITY":0.0000672,"INCLINATION":51.8982,"RA_OF_ASC_NODE":88.9748,"ARG_OF_PERICENTER":106.3149,"MEAN_ANOMALY":253.7887,"EPHEMERIS_TYPE":0,"NORAD_CAT_ID":64835,"ELEMENT_SET_NO":999,"REV_AT_EPOCH":5400,"BSTAR":0.0000056833,"MEAN_MOTION_DOT":-0.00000178,"MEAN_MOTION_DDOT":0},{"OBJECT_NAME":"KUIPER-00091","OBJECT_ID":"2025-151W","EPOCH":"2026-07-10T04:14:35.591712","CLASSIFICATION_TYPE":"U","MEAN_MOTION":14.79926819,"ECCENTRICITY":0.00007607,"INCLINATION":51.9005,"RA_OF_ASC_NODE":101.4722,"ARG_OF_PERICENTER":94.5398,"MEAN_ANOMALY":265.5651,"EPHEMERIS_TYPE":0,"NORAD_CAT_ID":64836,"ELEMENT_SET_NO":999,"REV_AT_EPOCH":5368,"BSTAR":0.00023546355,"MEAN_MOTION_DOT":0.00001574,"MEAN_MOTION_DDOT":0},{"OBJECT_NAME":"KUIPER-00092","OBJECT_ID":"2025-151X","EPOCH":"2026-07-11T04:21:34.380288","CLASSIFICATION_TYPE":"U","MEAN_MOTION":14.79931804,"ECCENTRICITY":0.00011215,"INCLINATION":51.8986,"RA_OF_ASC_NODE":104.5227,"ARG_OF_PERICENTER":119.2239,"MEAN_ANOMALY":240.8836,"EPHEMERIS_TYPE":0,"NORAD_CAT_ID":64837,"ELEMENT_SET_NO":999,"REV_AT_EPOCH":5494,"BSTAR":0.000038489363,"MEAN_MOTION_DOT":7.2e-7,"MEAN_MOTION_DDOT":0},{"OBJECT_NAME":"KUIPER-00093","OBJECT_ID":"2025-151Y","EPOCH":"2026-07-10T23:25:57.516096","CLASSIFICATION_TYPE":"U","MEAN_MOTION":14.79938791,"ECCENTRICITY":0.00006558,"INCLINATION":51.8991,"RA_OF_ASC_NODE":107.9021,"ARG_OF_PERICENTER":97.9265,"MEAN_ANOMALY":262.1772,"EPHEMERIS_TYPE":0,"NORAD_CAT_ID":64838,"ELEMENT_SET_NO":999,"REV_AT_EPOCH":5366,"BSTAR":0.00031525764,"MEAN_MOTION_DOT":0.00002183,"MEAN_MOTION_DDOT":0},{"OBJECT_NAME":"KUIPER-00094","OBJECT_ID":"2025-151Z","EPOCH":"2026-07-11T20:02:49.302240","CLASSIFICATION_TYPE":"U","MEAN_MOTION":14.79900748,"ECCENTRICITY":0.0000926,"INCLINATION":51.9042,"RA_OF_ASC_NODE":59.1951,"ARG_OF_PERICENTER":95.5155,"MEAN_ANOMALY":264.5913,"EPHEMERIS_TYPE":0,"NORAD_CAT_ID":64839,"ELEMENT_SET_NO":999,"REV_AT_EPOCH":5442,"BSTAR":0.00029326,"MEAN_MOTION_DOT":0.00002013,"MEAN_MOTION_DDOT":0},{"OBJECT_NAME":"KUIPER-00081","OBJECT_ID":"2025-171A","EPOCH":"2026-07-11T13:43:14.900736","CLASSIFICATION_TYPE":"U","MEAN_MOTION":14.79933239,"ECCENTRICITY":0.0000397,"INCLINATION":51.9,"RA_OF_ASC_NODE":320.2669,"ARG_OF_PERICENTER":92.5222,"MEAN_ANOMALY":267.5785,"EPHEMERIS_TYPE":0,"NORAD_CAT_ID":65132,"ELEMENT_SET_NO":999,"REV_AT_EPOCH":5138,"BSTAR":0.000055171,"MEAN_MOTION_DOT":0.000002,"MEAN_MOTION_DDOT":0},{"OBJECT_NAME":"KUIPER-00088","OBJECT_ID":"2025-171B","EPOCH":"2026-07-11T14:53:18.875040","CLASSIFICATION_TYPE":"U","MEAN_MOTION":14.79937371,"ECCENTRICITY":0.0000893,"INCLINATION":51.9001,"RA_OF_ASC_NODE":337.5534,"ARG_OF_PERICENTER":106.6451,"MEAN_ANOMALY":253.461,"EPHEMERIS_TYPE":0,"NORAD_CAT_ID":65133,"ELEMENT_SET_NO":999,"REV_AT_EPOCH":5114,"BSTAR":0.00026475,"MEAN_MOTION_DOT":0.00001798,"MEAN_MOTION_DDOT":0},{"OBJECT_NAME":"KUIPER-00095","OBJECT_ID":"2025-171C","EPOCH":"2026-07-11T15:24:23.145120","CLASSIFICATION_TYPE":"U","MEAN_MOTION":14.79932949,"ECCENTRICITY":0.0000479,"INCLINATION":51.898,"RA_OF_ASC_NODE":317.5061,"ARG_OF_PERICENTER":108.5667,"MEAN_ANOMALY":251.5347,"EPHEMERIS_TYPE":0,"NORAD_CAT_ID":65134,"ELEMENT_SET_NO":999,"REV_AT_EPOCH":5142,"BSTAR":0.00010402,"MEAN_MOTION_DOT":0.00000572,"MEAN_MOTION_DDOT":0},{"OBJECT_NAME":"KUIPER-00096","OBJECT_ID":"2025-171D","EPOCH":"2026-07-11T14:16:19.970112","CLASSIFICATION_TYPE":"U","MEAN_MOTION":14.79933363,"ECCENTRICITY":0.0000318,"INCLINATION":51.9003,"RA_OF_ASC_NODE":330.1634,"ARG_OF_PERICENTER":305.9425,"MEAN_ANOMALY":54.1508,"EPHEMERIS_TYPE":0,"NORAD_CAT_ID":65135,"ELEMENT_SET_NO":999,"REV_AT_EPOCH":5124,"BSTAR":0.000016745,"MEAN_MOTION_DOT":-9.3e-7,"MEAN_MOTION_DDOT":0},{"OBJECT_NAME":"KUIPER-00097","OBJECT_ID":"2025-171E","EPOCH":"2026-07-11T14:12:28.622016","CLASSIFICATION_TYPE":"U","MEAN_MOTION":14.79940647,"ECCENTRICITY":0.0000625,"INCLINATION":51.9025,"RA_OF_ASC_NODE":332.8327,"ARG_OF_PERICENTER":111.5726,"MEAN_ANOMALY":248.5303,"EPHEMERIS_TYPE":0,"NORAD_CAT_ID":65136,"ELEMENT_SET_NO":999,"REV_AT_EPOCH":5119,"BSTAR":0.00028224,"MEAN_MOTION_DOT":0.00001932,"MEAN_MOTION_DDOT":0},{"OBJECT_NAME":"KUIPER-00098","OBJECT_ID":"2025-171F","EPOCH":"2026-07-11T14:08:34.694880","CLASSIFICATION_TYPE":"U","MEAN_MOTION":14.79932737,"ECCENTRICITY":0.0000318,"INCLINATION":51.9007,"RA_OF_ASC_NODE":335.2096,"ARG_OF_PERICENTER":48.2887,"MEAN_ANOMALY":311.8102,"EPHEMERIS_TYPE":0,"NORAD_CAT_ID":65137,"ELEMENT_SET_NO":999,"REV_AT_EPOCH":5051,"BSTAR":0.000051075,"MEAN_MOTION_DOT":0.00000168,"MEAN_MOTION_DDOT":0},{"OBJECT_NAME":"KUIPER-00099","OBJECT_ID":"2025-171G","EPOCH":"2026-07-11T13:35:29.304096","CLASSIFICATION_TYPE":"U","MEAN_MOTION":14.79932531,"ECCENTRICITY":0.0000239,"INCLINATION":51.9032,"RA_OF_ASC_NODE":325.3163,"ARG_OF_PERICENTER":52.3308,"MEAN_ANOMALY":307.7676,"EPHEMERIS_TYPE":0,"NORAD_CAT_ID":65138,"ELEMENT_SET_NO":999,"REV_AT_EPOCH":5130,"BSTAR":0.000011413,"MEAN_MOTION_DOT":-0.00000134,"MEAN_MOTION_DDOT":0},{"OBJECT_NAME":"KUIPER-00100","OBJECT_ID":"2025-171H","EPOCH":"2026-07-11T20:56:57.350400","CLASSIFICATION_TYPE":"U","MEAN_MOTION":14.79929473,"ECCENTRICITY":0.0000519,"INCLINATION":51.9031,"RA_OF_ASC_NODE":321.431,"ARG_OF_PERICENTER":98.9356,"MEAN_ANOMALY":261.1665,"EPHEMERIS_TYPE":0,"NORAD_CAT_ID":65139,"ELEMENT_SET_NO":999,"REV_AT_EPOCH":5138,"BSTAR":0.000093085,"MEAN_MOTION_DOT":0.00000489,"MEAN_MOTION_DDOT":0},{"OBJECT_NAME":"KUIPER-00102","OBJECT_ID":"2025-171J","EPOCH":"2026-07-11T16:01:20.150112","CLASSIFICATION_TYPE":"U","MEAN_MOTION":14.79945072,"ECCENTRICITY":0.0000411,"INCLINATION":51.9001,"RA_OF_ASC_NODE":324.8265,"ARG_OF_PERICENTER":56.6932,"MEAN_ANOMALY":303.407,"EPHEMERIS_TYPE":0,"NORAD_CAT_ID":65140,"ELEMENT_SET_NO":999,"REV_AT_EPOCH":5131,"BSTAR":0.00026692,"MEAN_MOTION_DOT":0.00001815,"MEAN_MOTION_DDOT":0},{"OBJECT_NAME":"KUIPER-00103","OBJECT_ID":"2025-171K","EPOCH":"2026-07-11T14:45:32.495616","CLASSIFICATION_TYPE":"U","MEAN_MOTION":14.79932405,"ECCENTRICITY":0.0000258,"INCLINATION":51.8984,"RA_OF_ASC_NODE":342.5576,"ARG_OF_PERICENTER":12.6994,"MEAN_ANOMALY":347.3975,"EPHEMERIS_TYPE":0,"NORAD_CAT_ID":65141,"ELEMENT_SET_NO":999,"REV_AT_EPOCH":5106,"BSTAR":0.000033766,"MEAN_MOTION_DOT":3.6e-7,"MEAN_MOTION_DDOT":0},{"OBJECT_NAME":"KUIPER-00104","OBJECT_ID":"2025-171L","EPOCH":"2026-07-11T16:42:12.367008","CLASSIFICATION_TYPE":"U","MEAN_MOTION":14.7993696,"ECCENTRICITY":0.0000526,"INCLINATION":51.9029,"RA_OF_ASC_NODE":329.6986,"ARG_OF_PERICENTER":114.6604,"MEAN_ANOMALY":245.4413,"EPHEMERIS_TYPE":0,"NORAD_CAT_ID":65142,"ELEMENT_SET_NO":999,"REV_AT_EPOCH":5125,"BSTAR":0.00031107,"MEAN_MOTION_DOT":0.00002151,"MEAN_MOTION_DDOT":0},{"OBJECT_NAME":"KUIPER-00105","OBJECT_ID":"2025-171M","EPOCH":"2026-07-11T15:41:57.314112","CLASSIFICATION_TYPE":"U","MEAN_MOTION":14.79936603,"ECCENTRICITY":0.0000531,"INCLINATION":51.9011,"RA_OF_ASC_NODE":337.4851,"ARG_OF_PERICENTER":113.1869,"MEAN_ANOMALY":246.9149,"EPHEMERIS_TYPE":0,"NORAD_CAT_ID":65143,"ELEMENT_SET_NO":999,"REV_AT_EPOCH":5114,"BSTAR":0.00030713,"MEAN_MOTION_DOT":0.00002121,"MEAN_MOTION_DDOT":0},{"OBJECT_NAME":"KUIPER-00106","OBJECT_ID":"2025-171N","EPOCH":"2026-07-11T15:14:10.111200","CLASSIFICATION_TYPE":"U","MEAN_MOTION":14.79942809,"ECCENTRICITY":0.0000518,"INCLINATION":51.9008,"RA_OF_ASC_NODE":316.3319,"ARG_OF_PERICENTER":105.3146,"MEAN_ANOMALY":254.7873,"EPHEMERIS_TYPE":0,"NORAD_CAT_ID":65144,"ELEMENT_SET_NO":999,"REV_AT_EPOCH":5144,"BSTAR":0.00028822,"MEAN_MOTION_DOT":0.00001977,"MEAN_MOTION_DDOT":0},{"OBJECT_NAME":"KUIPER-00107","OBJECT_ID":"2025-171P","EPOCH":"2026-07-11T14:31:53.254272","CLASSIFICATION_TYPE":"U","MEAN_MOTION":14.79935479,"ECCENTRICITY":0.0000485,"INCLINATION":51.9018,"RA_OF_ASC_NODE":320.1419,"ARG_OF_PERICENTER":109.9633,"MEAN_ANOMALY":250.1382,"EPHEMERIS_TYPE":0,"NORAD_CAT_ID":65145,"ELEMENT_SET_NO":999,"REV_AT_EPOCH":5138,"BSTAR":0.00028898,"MEAN_MOTION_DOT":0.00001983,"MEAN_MOTION_DDOT":0},{"OBJECT_NAME":"KUIPER-00108","OBJECT_ID":"2025-171Q","EPOCH":"2026-07-11T16:38:19.449024","CLASSIFICATION_TYPE":"U","MEAN_MOTION":14.79942959,"ECCENTRICITY":0.0000458,"INCLINATION":51.9032,"RA_OF_ASC_NODE":332.2901,"ARG_OF_PERICENTER":102.4049,"MEAN_ANOMALY":257.6965,"EPHEMERIS_TYPE":0,"NORAD_CAT_ID":65146,"ELEMENT_SET_NO":999,"REV_AT_EPOCH":5122,"BSTAR":0.00029274,"MEAN_MOTION_DOT":0.00002012,"MEAN_MOTION_DDOT":0}]}
